STARLINK-2255           
1 48597U 21041AW  26068.52098089  .00012274  00000+0  43721-3 0  9999
2 48597  53.1569 140.3268 0001646  57.6674 302.4486 15.29339204266335
TEVEL2-4                
1 63213U 25052D   26068.69417973  .00020990  00000+0  70363-3 0  9998
2 63213  97.4009 325.1237 0004733  95.3468 264.8313 15.30925813 54879
